$$SOE
2459580.500000000, A.D. 2022-Jan-01 00:00:00.0000, -4.638298578605723E+08, 7.663308208140844E+07, 3.325074455175586E+07,
2459587.500000000, A.D. 2022-Jan-08 00:00:00.0000, -4.597599047104893E+08, 6.859677412400585E+07, 3.540195154290794E+07,
2459594.500000000, A.D. 2022-Jan-15 00:00:00.0000, -4.554697044163712E+08, 6.052762282745431E+07, 3.753618930250362E+07,
2459601.500000000, A.D. 2022-Jan-22 00:00:00.0000, -4.509538526469575E+08, 5.242850404169472E+07, 3.965181982434950E+07,
2459608.500000000, A.D. 2022-Jan-29 00:00:00.0000, -4.462067168470438E+08, 4.430251952646662E+07, 4.174710228665271E+07,
2459615.500000000, A.D. 2022-Feb-05 00:00:00.0000, -4.412224268637580E+08, 3.615301820632763E+07, 4.382018445765702E+07,
2459622.500000000, A.D. 2022-Feb-12 00:00:00.0000, -4.359948629146444E+08, 2.798361880819695E+07, 4.586909294207051E+07,
2459629.500000000, A.D. 2022-Feb-19 00:00:00.0000, -4.305176422474866E+08, 1.979823656537025E+07, 4.789172248303217E+07,
2459636.500000000, A.D. 2022-Feb-26 00:00:00.0000, -4.247841058456879E+08, 1.160111362268726E+07, 4.988582426754332E+07,
2459643.500000000, A.D. 2022-Mar-05 00:00:00.0000, -4.187873050855449E+08, 3.396852934590172E+06, 5.184899304283878E+07,
2459650.500000000, A.D. 2022-Mar-12 00:00:00.0000, -4.125199882177550E+08, -4.809543942774203E+06, 5.377865287451605E+07,
2459657.500000000, A.D. 2022-Mar-19 00:00:00.0000, -4.059745867343896E+08, -1.301263460393066E+07, 5.567204138105676E+07,
2459664.500000000, A.D. 2022-Mar-26 00:00:00.0000, -3.991432017809736E+08, -2.120648848548230E+07, 5.752619226163948E+07,
2459671.500000000, A.D. 2022-Apr-02 00:00:00.0000, -3.920175907899197E+08, -2.938463385044275E+07, 5.933791590427262E+07,
2459678.500000000, A.D. 2022-Apr-09 00:00:00.0000, -3.845891543846655E+08, -3.753999825574294E+07, 6.110377782339919E+07,
2459685.500000000, A.D. 2022-Apr-16 00:00:00.0000, -3.768489236173735E+08, -4.566484092785060E+07, 6.282007469503392E+07,
2459692.500000000, A.D. 2022-Apr-23 00:00:00.0000, -3.687875493563176E+08, -5.375067491043393E+07, 6.448280791381150E+07,
2459699.500000000, A.D. 2022-Apr-30 00:00:00.0000, -3.603952964061588E+08, -6.178818002986184E+07, 6.608765435091381E+07,
2459706.500000000, A.D. 2022-May-07 00:00:00.0000, -3.516620402242860E+08, -6.976710728398006E+07, 6.762993353372610E+07,
2459713.500000000, A.D. 2022-May-14 00:00:00.0000, -3.425772660340243E+08, -7.767617005774942E+07, 6.910457100333874E+07,
2459720.500000000, A.D. 2022-May-21 00:00:00.0000, -3.331300738894793E+08, -8.550291964528567E+07, 7.050605770752835E+07,
2459727.500000000, A.D. 2022-May-28 00:00:00.0000, -3.233091921261156E+08, -9.323360406205818E+07, 7.182840498628320E+07,
2459734.500000000, A.D. 2022-Jun-04 00:00:00.0000, -3.131030014274668E+08, -1.008530082626428E+08, 7.306509468673807E+07,
2459741.500000000, A.D. 2022-Jun-11 00:00:00.0000, -3.024995725680157E+08, -1.083442733451717E+08, 7.420902399881521E+07,
2459748.500000000, A.D. 2022-Jun-18 00:00:00.0000, -2.914867218791172E+08, -1.156886921207498E+08, 7.525244466140670E+07,
2459755.500000000, A.D. 2022-Jun-25 00:00:00.0000, -2.800520896077231E+08, -1.228654783412107E+08, 7.618689628290126E+07,
2459762.500000000, A.D. 2022-Jul-02 00:00:00.0000, -2.681832476344102E+08, -1.298515068896872E+08, 7.700313367757998E+07,
2459769.500000000, A.D. 2022-Jul-09 00:00:00.0000, -2.558678445118199E+08, -1.366210221605799E+08, 7.769104839197750E+07,
2459776.500000000, A.D. 2022-Jul-16 00:00:00.0000, -2.430937983971335E+08, -1.431453114153177E+08, 7.823958513872898E+07,
2459783.500000000, A.D. 2022-Jul-23 00:00:00.0000, -2.298495532447254E+08, -1.493923418411868E+08, 7.863665461455701E+07,
2459790.500000000, A.D. 2022-Jul-30 00:00:00.0000, -2.161244145295304E+08, -1.553263651224150E+08, 7.886904463907352E+07,
2459797.500000000, A.D. 2022-Aug-06 00:00:00.0000, -2.019089809925424E+08, -1.609074920312105E+08, 7.892233292614365E+07,
2459804.500000000, A.D. 2022-Aug-13 00:00:00.0000, -1.871956975224723E+08, -1.660912416549993E+08, 7.878080730968392E+07,
2459811.500000000, A.D. 2022-Aug-20 00:00:00.0000, -1.719795594662594E+08, -1.708280794960739E+08, 7.842740171882258E+07,
2459818.500000000, A.D. 2022-Aug-27 00:00:00.0000, -1.562590011858622E+08, -1.750629682227181E+08, 7.784365964268909E+07,
2459825.500000000, A.D. 2022-Sep-03 00:00:00.0000, -1.400370044446993E+08, -1.787349674743982E+08, 7.700974162078829E+07,
2459832.500000000, A.D. 2022-Sep-10 00:00:00.0000, -1.233224624573703E+08, -1.817769371563497E+08, 7.590449936259185E+07,
2459839.500000000, A.D. 2022-Sep-17 00:00:00.0000, -1.061318300990226E+08, -1.841154226024897E+08, 7.450564635897925E+07,
2459846.500000000, A.D. 2022-Sep-24 00:00:00.0000, -8.849107592515479E+07, -1.856708298378129E+08, 7.279006285365084E+07,
2459853.500000000, A.D. 2022-Oct-01 00:00:00.0000, -7.043792187292077E+07, -1.863580333373137E+08, 7.073428062640251E+07,
2459860.500000000, A.D. 2022-Oct-08 00:00:00.0000, -5.202430546383671E+07, -1.860875921543137E+08, 6.831519791822748E+07,
2459867.500000000, A.D. 2022-Oct-15 00:00:00.0000, -3.331892225379625E+07, -1.847677739180984E+08, 6.551107314911005E+07,
2459874.500000000, A.D. 2022-Oct-22 00:00:00.0000, -1.440959882186629E+07, -1.823075872967455E+08, 6.230283161120607E+07,
2459881.500000000, A.D. 2022-Oct-29 00:00:00.0000, 4.594890612921656E+06, -1.786209729480154E+08, 5.867568497279876E+07,
2459888.500000000, A.D. 2022-Nov-05 00:00:00.0000, 2.356408324340094E+07, -1.736321692822601E+08, 5.462100452472582E+07,
2459895.500000000, A.D. 2022-Nov-12 00:00:00.0000, 4.234676320319290E+07, -1.672820458622815E+08, 5.013830389627647E+07,
2459902.500000000, A.D. 2022-Nov-19 00:00:00.0000, 6.077414401540308E+07, -1.595348855103046E+08, 4.523708650959541E+07,
2459909.500000000, A.D. 2022-Nov-26 00:00:00.0000, 7.866564782879484E+07, -1.503847507835726E+08, 3.993822662295103E+07,
2459916.500000000, A.D. 2022-Dec-03 00:00:00.0000, 9.583718728493644E+07, -1.398603128913745E+08, 3.427452369020688E+07,
2459923.500000000, A.D. 2022-Dec-10 00:00:00.0000, 1.121112501929356E+08, -1.280270032754432E+08, 2.829014047010629E+07,
2459930.500000000, A.D. 2022-Dec-17 00:00:00.0000, 1.273274973367893E+08, -1.149856800910421E+08, 2.203882005020514E+07,
2459937.500000000, A.D. 2022-Dec-24 00:00:00.0000, 1.413522533303871E+08, -1.008676614520487E+08, 1.558103756730987E+07,
2459944.500000000, A.D. 2022-Dec-31 00:00:00.0000, 1.540853848195423E+08, -8.582677226340273E+07, 8.980491790488519E+06,
2459951.500000000, A.D. 2023-Jan-07 00:00:00.0000, 1.654636205976589E+08, -7.002969147018874E+07, 2.300483440185014E+06,
2459958.500000000, A.D. 2023-Jan-14 00:00:00.0000, 1.754601681724204E+08, -5.364613940712971E+07, -4.399290714419413E+06,
2459965.500000000, A.D. 2023-Jan-21 00:00:00.0000, 1.840812258096085E+08, -3.684026080274183E+07, -1.106515570494276E+07,
2459972.500000000, A.D. 2023-Jan-28 00:00:00.0000, 1.913604451932194E+08, -1.976406575979068E+07, -1.765093535397045E+07,
2459979.500000000, A.D. 2023-Feb-04 00:00:00.0000, 1.973524891798320E+08, -2.553218913369235E+06, -2.411853505634950E+07,
2459986.500000000, A.D. 2023-Feb-11 00:00:00.0000, 2.021266431315786E+08, 1.467499125351877E+07, -3.043780718853170E+07,
2459993.500000000, A.D. 2023-Feb-18 00:00:00.0000, 2.057611232217155E+08, 3.182194022266922E+07, -3.658592619338240E+07,
2460000.500000000, A.D. 2023-Feb-25 00:00:00.0000, 2.083384055241040E+08, 4.880673747024867E+07, -4.254648886290064E+07,
2460007.500000000, A.D. 2023-Mar-04 00:00:00.0000, 2.099416506802885E+08, 6.556456539062483E+07, -4.830851082479679E+07,
2460014.500000000, A.D. 2023-Mar-11 00:00:00.0000, 2.106521416420075E+08, 8.204467326948197E+07, -5.386543687773569E+07,
2460021.500000000, A.D. 2023-Mar-18 00:00:00.0000, 2.105475744935710E+08, 9.820829800885664E+07, -5.921423504672445E+07,
2460028.500000000, A.D. 2023-Mar-25 00:00:00.0000, 2.097010208194450E+08, 1.140266820471816E+08, -6.435460792256758E+07,
2460035.500000000, A.D. 2023-Apr-01 00:00:00.0000, 2.081803911497293E+08, 1.294792816173388E+08, -6.928833043318605E+07,
2460042.500000000, A.D. 2023-Apr-08 00:00:00.0000, 2.060482538916566E+08, 1.445522055403503E+08, -7.401870846717827E+07,
2460049.500000000, A.D. 2023-Apr-15 00:00:00.0000, 2.033618924597656E+08, 1.592368885503039E+08, -7.855014536225437E+07,
2460056.500000000, A.D. 2023-Apr-22 00:00:00.0000, 2.001735156772746E+08, 1.735289819001720E+08, -8.288780100082241E+07,
2460063.500000000, A.D. 2023-Apr-29 00:00:00.0000, 1.965305612145442E+08, 1.874274398531683E+08, -8.703732777508262E+07,
2460070.500000000, A.D. 2023-May-06 00:00:00.0000, 1.924760461527495E+08, 2.009337769715920E+08, -9.100466861190920E+07,
2460077.500000000, A.D. 2023-May-13 00:00:00.0000, 1.880489338020860E+08, 2.140514687868106E+08, -9.479590445971459E+07,
2460084.500000000, A.D. 2023-May-20 00:00:00.0000, 1.832844975353930E+08, 2.267854710282372E+08, -9.841714076508978E+07,
2460091.500000000, A.D. 2023-May-27 00:00:00.0000, 1.782146697648452E+08, 2.391418360335144E+08, -1.018744243521451E+08,
2460098.500000000, A.D. 2023-Jun-03 00:00:00.0000, 1.728683691910697E+08, 2.511274081720503E+08, -1.051736837966109E+08,
2460105.500000000, A.D. 2023-Jun-10 00:00:00.0000, 1.672718028960943E+08, 2.627495830678194E+08, -1.083206878194509E+08,
2460112.500000000, A.D. 2023-Jun-17 00:00:00.0000, 1.614487422038274E+08, 2.740161180378899E+08, -1.113210174117262E+08,
2460119.500000000, A.D. 2023-Jun-24 00:00:00.0000, 1.554207729163325E+08, 2.849349835866033E+08, -1.141800483638845E+08,
2460126.500000000, A.D. 2023-Jul-01 00:00:00.0000, 1.492075213480832E+08, 2.955142485079185E+08, -1.169029415590538E+08,
2460133.500000000, A.D. 2023-Jul-08 00:00:00.0000, 1.428268561427754E+08, 3.057619927425486E+08, -1.194946388046818E+08,
2460140.500000000, A.D. 2023-Jul-15 00:00:00.0000, 1.362950664798817E+08, 3.156862398004087E+08, -1.219598627741617E+08,
2460147.500000000, A.D. 2023-Jul-22 00:00:00.0000, 1.296270221479300E+08, 3.252949034300174E+08, -1.243031202937603E+08,
$$EOE